STARLINK-31955          
1 59939U 24106T   26068.09245399 -.00001235  00000+0 -35368-4 0  9992
2 59939  43.0036 335.7110 0001578 261.2872  98.7801 15.27582623100478
HAWK-11C                
1 62381U 24247E   26068.51221537  .00009223  00000+0  33290-3 0  9992
2 62381  45.0045 114.8762 0005900 329.7040  30.3502 15.28848020 67743
